GLOBALSTAR M068         
1 32266U 07048D   26073.59092762 -.00000103  00000+0  44272-5 0  9994
2 32266  51.9879 197.9612 0001169  54.7324 318.5017 12.62842217851720
GLOBALSTAR M079         
1 37188U 10054A   26073.61467169 -.00000100  00000+0  22000-4 0  9994
2 37188  52.0059  36.5605 0000537 107.2635  64.4542 12.62263948710606
GLOBALSTAR M074         
1 37189U 10054B   26073.23091223 -.00000107  00000+0 -17760-4 0  9992
2 37189  52.0034  37.0097 0000270  73.4359  32.9363 12.62266326711168
GLOBALSTAR M076         
1 37190U 10054C   26073.09318357 -.00000097  00000+0  35353-4 0  9993
2 37190  52.0048  37.6234 0000316 126.2489 314.1335 12.62270599710863
GLOBALSTAR M077         
1 37191U 10054D   26073.26585712 -.00000096  00000+0 -31841-3 0  9991
2 37191  51.9986  60.3015 0000830 146.2573 226.4606 11.68156472710055
GLOBALSTAR M075         
1 37192U 10054E   26073.43850132 -.00000099  00000+0  25954-4 0  9993
2 37192  51.9938  78.6797 0000361  93.0762  57.3880 12.62264951709971
GLOBALSTAR M073         
1 37193U 10054F   26073.52238589 -.00000098  00000+0  29619-4 0  9991
2 37193  52.0093 352.4539 0000592  99.8022  71.0391 12.62265229711974
GLOBALSTAR M083         
1 37739U 11033A   26073.58016413 -.00000067  00000+0  20631-3 0  9991
2 37739  51.9862 300.6380 0000862  99.8658 275.2689 12.62267923681007
GLOBALSTAR M088         
1 37740U 11033B   26073.63293848 -.00000110  00000+0 -36751-4 0  9999
2 37740  52.0205 206.6730 0000734 106.9659 266.6961 12.62262281676558
GLOBALSTAR M091         
1 37741U 11033C   26073.56685238 -.00000111  00000+0 -39558-4 0  9999
2 37741  51.9990 169.9799 0000770 108.7998 264.8577 12.62270379677337
GLOBALSTAR M085         
1 37742U 11033D   26073.58676448 -.00000094  00000+0  57270-4 0  9995
2 37742  52.0110 121.1282 0000667 111.1418  53.3295 12.62269755677841
GLOBALSTAR M081         
1 37743U 11033E   26073.53026991 -.00000091  00000+0  69068-4 0  9998
2 37743  51.9947 123.8447 0000513 129.2440  18.2575 12.62262928677986
GLOBALSTAR M089         
1 37744U 11033F   26073.41083701 -.00000084  00000+0  11156-3 0  9994
2 37744  51.9922  78.3835 0000060 160.7498 343.8542 12.62264902678813
GLOBALSTAR M084         
1 38040U 11080A   26073.63396703 -.00000074  00000+0  16428-3 0  9995
2 38040  52.0017 305.1391 0000485  86.2722 292.6143 12.62265657656824
GLOBALSTAR M080         
1 38041U 11080B   26073.60512941 -.00000067  00000+0  20673-3 0  9996
2 38041  52.0070 306.9134 0001183  74.0343 303.2531 12.62267375656940
GLOBALSTAR M082         
1 38042U 11080C   26073.54600382 -.00000075  00000+0  16231-3 0  9991
2 38042  52.0064 262.5827 0001154  87.0434 311.4037 12.62268488657649
GLOBALSTAR M092         
1 38043U 11080D   26073.54898156 -.00000090  00000+0  78300-4 0  9993
2 38043  52.0115 352.9636 0000547  74.5499  97.3279 12.62264594656096
GLOBALSTAR M090         
1 38044U 11080E   26073.48898223 -.00000080  00000+0  13405-3 0  9995
2 38044  52.0107 256.6814 0000936 100.6273 277.5986 12.62272074657752
GLOBALSTAR M086         
1 38045U 11080F   26073.42996711 -.00000061  00000+0  24089-3 0  9990
2 38045  51.9888 256.9456 0001151 159.6201 205.2457 12.62284192657695
GLOBALSTAR M097         
1 39072U 13005A   26073.45790416 -.00000118  00000+0 -80594-4 0  9995
2 39072  52.0041 171.6963 0000800 120.2202 239.8744 12.62265647604946
GLOBALSTAR M093         
1 39073U 13005B   26073.59014535 -.00000110  00000+0 -37244-4 0  9998
2 39073  52.0101 164.6072 0000934 125.2744 234.8210 12.62263899604918
GLOBALSTAR M094         
1 39074U 13005C   26073.27359427 -.00000095  00000+0  47324-4 0  9997
2 39074  51.9950  79.7818 0000531 117.0264 243.0657 12.62267229606484
GLOBALSTAR M096         
1 39075U 13005D   26073.52432620 -.00000093  00000+0  62208-4 0  9999
2 39075  52.0061 127.7464 0000668 116.3883 243.7052 12.62263736605430
GLOBALSTAR M078         
1 39076U 13005E   26073.57680157 -.00000107  00000+0 -19922-4 0  9997
2 39076  51.9863 211.7251 0001480  79.6411 280.4622 12.62276072604064
GLOBALSTAR M095         
1 39077U 13005F   26073.52424050 -.00000113  00000+0 -49726-4 0  9993
2 39077  52.0070 209.3557 0001255 103.7434 256.3573 12.62276263603915
GLOBALSTAR M087         
1 52888U 22064A   26073.45847270 -.00000083  00000+0  11824-3 0  9990
2 52888  52.0027 350.8515 0000801  88.3579 271.7380 12.62267161179172
